OBJECT_NAME,OBJECT_ID,EPOCH,MEAN_MOTION,ECCENTRICITY,INCLINATION,RA_OF_ASC_NODE,ARG_OF_PERICENTER,MEAN_ANOMALY,EPHEMERIS_TYPE,CLASSIFICATION_TYPE,NORAD_CAT_ID,ELEMENT_SET_NO,REV_AT_EPOCH,BSTAR,MEAN_MOTION_DOT,MEAN_MOTION_DDOT
STARLINK-2113,2021-005AV,2024-09-28T01:37:38.903232,15.06406192,.0001214,53.0535,240.2024,83.9275,276.1852,0,U,47392,999,20454,.9473E-3,.13859E-3,0
STARLINK-2114,2021-005AW,2024-09-28T02:15:32.825952,15.06408729,.0001365,53.0518,215.4454,99.9219,260.1924,0,U,47393,999,20428,.18228E-2,.2698E-3,0
STARLINK-2115,2021-005AX,2024-09-28T02:12:51.333120,15.06402985,.0001553,53.0529,235.2617,100.5612,259.5552,0,U,47394,999,20462,.9742E-3,.1426E-3,0
STARLINK-2117,2021-005AY,2024-09-28T02:42:40.642560,15.06408488,.0001233,53.0537,229.9995,97.9282,262.1847,0,U,47395,999,20408,.10835E-2,.15898E-3,0
STARLINK-2119,2021-005BA,2024-09-28T00:29:58.850592,15.06399399,.0000744,53.0538,270.4177,80.3366,279.7707,0,U,47397,999,20351,.19513E-3,.2626E-4,0
STARLINK-2120,2021-005BB,2024-09-28T01:27:01.103616,15.06420916,.0001401,53.0540,240.2387,82.4158,277.6990,0,U,47398,999,20454,.45851E-3,.6558E-4,0
STARLINK-2121,2021-005BC,2024-09-27T05:36:48.657600,15.06395864,.0001438,53.0537,254.1898,84.3195,275.7958,0,U,47399,999,20366,.27275E-4,.125E-5,0
STARLINK-2122,2021-005BD,2024-09-28T02:58:35.156064,15.06422969,.0001246,53.0533,229.9631,103.7891,256.3236,0,U,47400,999,20408,.13761E-2,.20288E-3,0
STARLINK-2123,2021-005BE,2024-09-28T01:48:15.725664,15.06408048,.0001248,53.0536,240.1714,81.3925,278.7205,0,U,47401,999,20455,.10882E-2,.15968E-3,0
STARLINK-2124,2021-005BF,2024-09-28T02:14:48.062976,15.06406391,.0001706,53.0553,240.0915,111.4590,248.6581,0,U,47402,999,20455,.95575E-3,.13985E-3,0
STARLINK-2127,2021-005BG,2024-09-28T02:25:24.350592,15.06408942,.0001616,53.0543,240.0574,96.0874,264.0300,0,U,47403,999,20455,.31654E-3,.4438E-4,0
STARLINK-2128,2021-005BH,2024-09-28T02:20:06.416736,15.06412133,.0001521,53.0543,240.0728,94.3273,265.7890,0,U,47404,999,20455,.2319E-3,.3175E-4,0
STARLINK-2130,2021-005BJ,2024-09-27T09:59:30.448032,15.06384655,.0002382,53.0534,273.1306,85.8658,274.2603,0,U,47405,999,20341,-.66645E-4,-.1274E-4,0
STARLINK-2133,2021-005BK,2024-09-28T02:36:02.156256,15.06403725,.0001421,53.0513,240.0230,94.4741,265.6410,0,U,47406,999,20456,.11853E-2,.17419E-3,0
STARLINK-2134,2021-005BL,2024-09-27T06:04:38.196768,15.06389891,.0001318,53.0516,243.8620,89.4098,270.7042,0,U,47407,999,20381,-.89583E-4,-.1615E-4,0
STARLINK-2135,2021-005BM,2024-09-28T02:04:10.954560,15.06404125,.0001304,53.0536,240.1225,97.6924,262.4213,0,U,47408,999,20455,.62383E-3,.9024E-4,0
ASTROCAST-0101,2021-006T,2024-09-28T02:28:04.083456,15.31353383,.0004709,97.3329,323.7831,250.4908,109.5825,0,U,47430,999,20389,.9135E-3,.27663E-3,0
UVSQ-SAT,2021-006AB,2024-09-28T01:40:05.632896,15.75386280,.0006223,97.3057,335.3693,202.2608,157.8388,0,U,47438,999,20475,.1975E-2,.308144E-2,0
SOMP2B,2021-006AJ,2024-09-27T03:14:53.414016,15.64576389,.0006551,97.3039,331.8247,201.9515,158.1465,0,U,47445,999,20447,.18562E-2,.182693E-2,0
KEPLER-12 (BOBA),2021-006AK,2024-09-28T03:04:19.036704,15.85181657,.0008708,97.2972,333.4182,164.6723,195.4813,0,U,47446,999,20459,.22962E-2,.576453E-2,0
CUBEL,2021-006AM,2024-09-28T01:47:20.571360,15.23870265,.000812,97.3320,321.1990,251.1651,108.8706,0,U,47448,999,20367,.46224E-3,.11099E-3,0
IDEASSAT,2021-006AX,2024-09-27T13:40:28.642080,15.57954706,.0006252,97.3166,332.3317,199.5038,160.5979,0,U,47458,999,20443,.16953E-2,.12858E-2,0
CELESTIS-17 & SHERPA-FX1,2021-006CB,2024-09-27T13:17:52.004832,15.21846190,.0006474,97.3201,317.1948,261.9077,98.1425,0,U,47486,999,20348,.46886E-3,.10601E-3,0
ASTROCAST-0103,2021-006CC,2024-09-27T10:03:50.162112,15.31687360,.0004524,97.3430,324.0175,258.9827,101.0906,0,U,47487,999,20377,.7427E-3,.22696E-3,0
ASTROCAST-0102,2021-006CD,2024-09-27T14:51:46.382976,15.40337369,.0008225,97.3301,324.5061,208.3150,151.7650,0,U,47488,999,20389,.1993E-2,.8115E-3,0
HAWK-2C,2021-006CT,2024-09-27T09:39:30.395232,15.21966100,.0007377,97.3215,318.5351,279.1127,80.9275,0,U,47502,999,20355,.55511E-3,.12613E-3,0
KEPLER-11 (DANEEL),2021-006CU,2024-09-27T14:26:17.208384,15.47465166,.0004838,97.3175,328.4026,206.5092,153.5911,0,U,47503,999,20420,.13026E-2,.67235E-3,0
ION SCV-002,2021-006CV,2024-09-27T11:20:22.079328,15.25996603,.001539,97.1241,283.9929,210.8746,149.1590,0,U,47504,999,20371,.55685E-3,.14309E-3,0
HAWK-2A,2021-006CW,2024-09-27T20:42:26.643168,15.22006583,.0006558,97.3280,319.2832,281.0839,78.9660,0,U,47505,999,20362,.82742E-3,.1887E-3,0
ICEYE-X9,2021-006CX,2024-09-28T02:59:22.132608,15.94573983,.0009211,97.2916,331.5999,224.8809,135.1723,0,U,47506,999,20444,.22007E-2,.828067E-2,.29906E-3
XR-1 (ICEYE-X10),2021-006CY,2024-09-28T01:50:27.856320,15.35798474,.000953,97.3286,326.8441,234.8751,125.1601,0,U,47507,999,20407,.12221E-2,.42727E-3,0
HAWK-2B,2021-006CZ,2024-09-27T03:21:22.766976,15.21964471,.0007267,97.3129,317.9926,282.6965,77.3459,0,U,47508,999,20351,.55597E-3,.12632E-3,0
GHGSAT-C2,2021-006DA,2024-09-27T09:12:05.048064,15.26888686,.0005049,97.3121,319.0226,246.0326,114.0384,0,U,47509,999,20367,.38229E-3,.10032E-3,0
ICEYE-X8,2021-006DB,2024-09-28T01:43:30.245376,15.38217162,.0004706,97.3239,326.5628,212.1941,147.9017,0,U,47510,999,20411,.90307E-3,.34033E-3,0
ASTROCAST-0105,2021-006DH,2024-09-28T02:49:55.264800,15.31348709,.0001763,97.3183,320.5977,211.1878,148.9259,0,U,47517,999,20379,.61702E-3,.18631E-3,0
ASTROCAST-0104,2021-006DK,2024-09-27T14:45:23.233536,15.31173508,.0005186,97.3376,323.4663,229.0220,131.0573,0,U,47519,999,20379,.6809E-3,.20467E-3,0
KEPLER-14 (STELLA),2021-006DS,2024-09-28T02:56:30.183648,15.50619647,.0004986,97.3127,326.3221,222.8366,137.2498,0,U,47526,999,20512,.19706E-2,.114295E-2,0
YAOGAN-31 02A,2021-007A,2024-09-28T02:22:08.594112,13.45343811,.0119623,63.4063,314.2449,357.8305,2.2187,0,U,47532,999,17996,.18814E-3,.26E-6,0
YAOGAN-31 02B,2021-007B,2024-09-28T02:22:08.995872,13.45344289,.0120015,63.4056,313.2863,357.9209,2.1303,0,U,47533,999,17997,.19831E-3,.32E-6,0
YAOGAN-31 02C,2021-007E,2024-09-28T02:21:50.556384,13.45343946,.01197,63.4057,313.3029,357.9234,2.1279,0,U,47536,999,17998,.19662E-3,.31E-6,0
COSMOS 2549,2021-008A,2024-09-28T01:40:57.680256,13.96884283,.0007177,67.1476,69.9060,261.3574,98.6698,0,U,47546,999,18622,.7649E-4,.31E-6,0
STARLINK-1782,2021-009A,2024-09-28T02:12:09.741888,15.06412341,.0001175,53.0537,220.0950,100.8939,259.2182,0,U,47548,999,20201,.1426E-2,.2103E-3,0
STARLINK-1806,2021-009B,2024-09-28T02:06:51.549696,15.06404202,.0001174,53.0537,220.1118,106.0242,254.0877,0,U,47549,999,20202,.11767E-2,.17291E-3,0
STARLINK-1909,2021-009C,2024-09-28T02:24:05.379264,15.06431512,.000096,53.0516,210.0594,106.6213,253.4881,0,U,47550,999,20216,.21423E-2,.318E-3,0
STARLINK-1938,2021-009D,2024-09-28T02:16:08.672448,15.06406687,.0001363,53.0518,230.0849,107.9513,252.1625,0,U,47551,999,20188,.15327E-2,.22626E-3,0
STARLINK-1940,2021-009E,2024-09-27T20:00:37.221696,15.06395748,.0001243,53.0536,221.2548,86.1503,273.9628,0,U,47552,999,20137,.168E-2,.24828E-3,0
STARLINK-1953,2021-009G,2024-09-27T07:24:14.810400,15.06385383,.0001729,53.0540,243.6139,85.3400,274.7786,0,U,47554,999,20101,-.11926E-3,-.2057E-4,0
STARLINK-1954,2021-009H,2024-09-27T14:46:08.031072,15.06373077,.0001102,53.0513,232.2353,90.9736,269.1379,0,U,47555,999,20181,.45206E-3,.6454E-4,0
STARLINK-1955,2021-009J,2024-09-27T09:14:22.992576,15.06388069,.0001227,53.0531,253.2717,88.9707,271.1423,0,U,47556,999,20088,-.10807E-3,-.189E-4,0
STARLINK-1956,2021-009K,2024-09-27T16:19:01.917120,15.06409151,.0001578,53.0517,251.9470,104.2112,255.9052,0,U,47557,999,20093,.60578E-3,.8755E-4,0
STARLINK-1957,2021-009L,2024-09-27T14:15:37.334304,15.06383084,.0001367,53.0514,222.3329,86.9650,273.1495,0,U,47558,999,20194,.11698E-2,.17178E-3,0
STARLINK-1958,2021-009M,2024-09-28T02:08:11.361696,15.06416470,.0001253,53.0523,210.1106,108.1035,252.0090,0,U,47559,999,20216,.20447E-2,.30319E-3,0
STARLINK-1959,2021-009N,2024-09-27T13:11:53.606400,15.06391174,.0001386,53.0532,212.5207,91.0532,269.0615,0,U,47560,999,20208,.18811E-2,.27842E-3,0
STARLINK-1960,2021-009P,2024-09-27T14:30:12.643200,15.06381003,.0001273,53.0530,232.2850,95.0994,265.0140,0,U,47561,999,20181,.11021E-2,.16164E-3,0
STARLINK-1961,2021-009Q,2024-09-27T14:51:25.630560,15.06391503,.0001425,53.0522,232.2201,91.7337,268.3815,0,U,47562,999,20181,.10265E-2,.15038E-3,0
STARLINK-1962,2021-009R,2024-09-28T02:32:03.214464,15.06417911,.0001305,53.0537,230.0349,105.7093,254.4040,0,U,47563,999,20188,.14887E-2,.21973E-3,0
STARLINK-1963,2021-009S,2024-09-28T02:33:23.755680,15.06406933,.0001372,53.0527,220.0327,95.4891,264.6255,0,U,47564,999,20202,.16887E-2,.24966E-3,0
STARLINK-1964,2021-009T,2024-09-28T02:28:04.176768,15.06426780,.0001303,53.0533,220.0475,108.1680,251.9451,0,U,47565,999,20202,.16878E-2,.24966E-3,0
STARLINK-1965,2021-009U,2024-09-28T02:18:47.747808,15.06419681,.0001189,53.0521,210.0772,95.2626,264.8499,0,U,47566,999,20216,.20218E-2,.29978E-3,0
STARLINK-1966,2021-009V,2024-09-27T08:05:23.444160,15.06386848,.0001311,53.0526,253.4854,92.8259,267.2880,0,U,47567,999,20087,-.12448E-3,-.2134E-4,0
STARLINK-1967,2021-009W,2024-09-27T08:42:32.711904,15.06388365,.0001582,53.0520,253.3705,90.7443,269.3727,0,U,47568,999,20088,.38374E-4,.29E-5,0
STARLINK-1970,2021-009Z,2024-09-27T13:33:09.321408,15.06385627,.0001106,53.0538,222.4626,104.6592,255.4520,0,U,47571,999,20133,.131E-2,.19277E-3,0
STARLINK-1971,2021-009AA,2024-09-28T01:50:54.489984,15.06426945,.0001374,53.0532,220.1646,96.0208,264.0938,0,U,47572,999,20202,.17979E-2,.26619E-3,0
STARLINK-1975,2021-009AB,2024-09-27T14:10:18.252192,15.06394879,.0001153,53.0513,222.3482,100.8390,259.2729,0,U,47573,999,20133,.21269E-2,.31536E-3,0
STARLINK-1976,2021-009AC,2024-09-27T16:08:23.313120,15.06397172,.0001282,53.0538,251.9761,99.5371,260.5763,0,U,47574,999,20092,.31778E-4,.192E-5,0
STARLINK-1977,2021-009AD,2024-09-27T07:54:46.663200,15.06380749,.000126,53.0530,253.5170,84.3599,275.7534,0,U,47575,999,20087,-.2722E-3,-.4331E-4,0
